CCSDS_OMM_VERS = 2.0
CREATION_DATE  = 
ORIGINATOR     = 

OBJECT_NAME    = SL-16 R/B
OBJECT_ID      = 1993-016B
CENTER_NAME    = EARTH
REF_FRAME      = TEME
TIME_SYSTEM    = UTC
MEAN_ELEMENT_THEORY = SGP/SGP4

EPOCH          = 2026-01-09T08:09:53.202240
MEAN_MOTION    = 14.15295498
ECCENTRICITY   = .00083861
INCLINATION    = 71.0089
RA_OF_ASC_NODE = 339.8333
ARG_OF_PERICENTER = 42.9500
MEAN_ANOMALY   = 317.2277

EPHEMERIS_TYPE = 0
CLASSIFICATION_TYPE = U
NORAD_CAT_ID   = 22566
ELEMENT_SET_NO = 999
REV_AT_EPOCH   = 69377
BSTAR          = -.84546329E-4
MEAN_MOTION_DOT = -.212E-5
MEAN_MOTION_DDOT = 0

CCSDS_OMM_VERS = 2.0
CREATION_DATE  = 
ORIGINATOR     = 

OBJECT_NAME    = COSMOS 2242
OBJECT_ID      = 1993-024A
CENTER_NAME    = EARTH
REF_FRAME      = TEME
TIME_SYSTEM    = UTC
MEAN_ELEMENT_THEORY = SGP/SGP4

EPOCH          = 2026-01-09T14:11:20.531904
MEAN_MOTION    = 14.96253499
ECCENTRICITY   = .00174122
INCLINATION    = 82.5208
RA_OF_ASC_NODE = 323.2226
ARG_OF_PERICENTER = 139.0171
MEAN_ANOMALY   = 221.2364

EPHEMERIS_TYPE = 0
CLASSIFICATION_TYPE = U
NORAD_CAT_ID   = 22626
ELEMENT_SET_NO = 999
REV_AT_EPOCH   = 77155
BSTAR          = .21495231E-3
MEAN_MOTION_DOT = .2459E-4
MEAN_MOTION_DDOT = 0

CCSDS_OMM_VERS = 2.0
CREATION_DATE  = 
ORIGINATOR     = 

OBJECT_NAME    = SL-16 R/B
OBJECT_ID      = 1993-059B
CENTER_NAME    = EARTH
REF_FRAME      = TEME
TIME_SYSTEM    = UTC
MEAN_ELEMENT_THEORY = SGP/SGP4

EPOCH          = 2026-01-09T16:22:52.146336
MEAN_MOTION    = 14.17218869
ECCENTRICITY   = .00192443
INCLINATION    = 70.9903
RA_OF_ASC_NODE = 135.5632
ARG_OF_PERICENTER = 296.5719
MEAN_ANOMALY   = 63.3432

EPHEMERIS_TYPE = 0
CLASSIFICATION_TYPE = U
NORAD_CAT_ID   = 22803
ELEMENT_SET_NO = 999
REV_AT_EPOCH   = 67117
BSTAR          = .42516512E-4
MEAN_MOTION_DOT = .38E-6
MEAN_MOTION_DDOT = 0

CCSDS_OMM_VERS = 2.0
CREATION_DATE  = 
ORIGINATOR     = 

OBJECT_NAME    = ARIANE 40 R/B
OBJECT_ID      = 1993-061H
CENTER_NAME    = EARTH
REF_FRAME      = TEME
TIME_SYSTEM    = UTC
MEAN_ELEMENT_THEORY = SGP/SGP4

EPOCH          = 2026-01-09T16:35:12.341184
MEAN_MOTION    = 14.32823323
ECCENTRICITY   = .00118235
INCLINATION    = 98.5033
RA_OF_ASC_NODE = 79.7072
ARG_OF_PERICENTER = 98.9417
MEAN_ANOMALY   = 261.3106

EPHEMERIS_TYPE = 0
CLASSIFICATION_TYPE = U
NORAD_CAT_ID   = 22830
ELEMENT_SET_NO = 999
REV_AT_EPOCH   = 68565
BSTAR          = .11590163E-3
MEAN_MOTION_DOT = .273E-5
MEAN_MOTION_DDOT = 0

CCSDS_OMM_VERS = 2.0
CREATION_DATE  = 
ORIGINATOR     = 

OBJECT_NAME    = COSMOS 2278
OBJECT_ID      = 1994-023A
CENTER_NAME    = EARTH
REF_FRAME      = TEME
TIME_SYSTEM    = UTC
MEAN_ELEMENT_THEORY = SGP/SGP4

EPOCH          = 2026-01-09T13:01:56.164224
MEAN_MOTION    = 14.14360729
ECCENTRICITY   = .00070247
INCLINATION    = 71.0550
RA_OF_ASC_NODE = 298.8415
ARG_OF_PERICENTER = 128.2451
MEAN_ANOMALY   = 231.9305

EPHEMERIS_TYPE = 0
CLASSIFICATION_TYPE = U
NORAD_CAT_ID   = 23087
ELEMENT_SET_NO = 999
REV_AT_EPOCH   = 63644
BSTAR          = .22507909E-3
MEAN_MOTION_DOT = .384E-5
MEAN_MOTION_DDOT = 0

CCSDS_OMM_VERS = 2.0
CREATION_DATE  = 
ORIGINATOR     = 

OBJECT_NAME    = SL-16 R/B
OBJECT_ID      = 1994-023B
CENTER_NAME    = EARTH
REF_FRAME      = TEME
TIME_SYSTEM    = UTC
MEAN_ELEMENT_THEORY = SGP/SGP4

EPOCH          = 2026-01-09T16:29:18.972960
MEAN_MOTION    = 14.15002698
ECCENTRICITY   = .00029217
INCLINATION    = 70.9984
RA_OF_ASC_NODE = 194.7961
ARG_OF_PERICENTER = 347.6264
MEAN_ANOMALY   = 12.4786

EPHEMERIS_TYPE = 0
CLASSIFICATION_TYPE = U
NORAD_CAT_ID   = 23088
ELEMENT_SET_NO = 999
REV_AT_EPOCH   = 63774
BSTAR          = .19783494E-3
MEAN_MOTION_DOT = .335E-5
MEAN_MOTION_DDOT = 0

CCSDS_OMM_VERS = 2.0
CREATION_DATE  = 
ORIGINATOR     = 

OBJECT_NAME    = SL-16 R/B
OBJECT_ID      = 1994-074B
CENTER_NAME    = EARTH
REF_FRAME      = TEME
TIME_SYSTEM    = UTC
MEAN_ELEMENT_THEORY = SGP/SGP4

EPOCH          = 2026-01-09T16:31:22.549152
MEAN_MOTION    = 14.79328389
ECCENTRICITY   = .0007831
INCLINATION    = 97.7176
RA_OF_ASC_NODE = 42.8784
ARG_OF_PERICENTER = 60.2286
MEAN_ANOMALY   = 56.3483

EPHEMERIS_TYPE = 0
CLASSIFICATION_TYPE = U
NORAD_CAT_ID   = 23343
ELEMENT_SET_NO = 999
REV_AT_EPOCH   = 67852
BSTAR          = .75671562E-4
MEAN_MOTION_DOT = .514E-5
MEAN_MOTION_DDOT = 0

CCSDS_OMM_VERS = 2.0
CREATION_DATE  = 
ORIGINATOR     = 

OBJECT_NAME    = SL-16 R/B
OBJECT_ID      = 1994-077B
CENTER_NAME    = EARTH
REF_FRAME      = TEME
TIME_SYSTEM    = UTC
MEAN_ELEMENT_THEORY = SGP/SGP4

EPOCH          = 2026-01-09T16:35:59.296992
MEAN_MOTION    = 14.15551799
ECCENTRICITY   = .00048495
INCLINATION    = 70.9829
RA_OF_ASC_NODE = 116.6114
ARG_OF_PERICENTER = 261.4068
MEAN_ANOMALY   = 98.6505

EPHEMERIS_TYPE = 0
CLASSIFICATION_TYPE = U
NORAD_CAT_ID   = 23405
ELEMENT_SET_NO = 999
REV_AT_EPOCH   = 60788
BSTAR          = .14763114E-3
MEAN_MOTION_DOT = .241E-5
MEAN_MOTION_DDOT = 0

CCSDS_OMM_VERS = 2.0
CREATION_DATE  = 
ORIGINATOR     = 

OBJECT_NAME    = ARIANE 40+ R/B
OBJECT_ID      = 1995-021B
CENTER_NAME    = EARTH
REF_FRAME      = TEME
TIME_SYSTEM    = UTC
MEAN_ELEMENT_THEORY = SGP/SGP4

EPOCH          = 2026-01-09T16:26:46.070016
MEAN_MOTION    = 14.39721225
ECCENTRICITY   = .00059846
INCLINATION    = 98.4612
RA_OF_ASC_NODE = 81.9323
ARG_OF_PERICENTER = 326.1826
MEAN_ANOMALY   = 147.7197

EPHEMERIS_TYPE = 0
CLASSIFICATION_TYPE = U
NORAD_CAT_ID   = 23561
ELEMENT_SET_NO = 999
REV_AT_EPOCH   = 61075
BSTAR          = .11507511E-3
MEAN_MOTION_DOT = .317E-5
MEAN_MOTION_DDOT = 0

CCSDS_OMM_VERS = 2.0
CREATION_DATE  = 
ORIGINATOR     = 

OBJECT_NAME    = SL-16 R/B
OBJECT_ID      = 1995-058B
CENTER_NAME    = EARTH
REF_FRAME      = TEME
TIME_SYSTEM    = UTC
MEAN_ELEMENT_THEORY = SGP/SGP4

EPOCH          = 2026-01-09T13:18:19.954368
MEAN_MOTION    = 14.15488560
ECCENTRICITY   = .00139127
INCLINATION    = 71.0230
RA_OF_ASC_NODE = 304.4076
ARG_OF_PERICENTER = 218.0256
MEAN_ANOMALY   = 141.9886

EPHEMERIS_TYPE = 0
CLASSIFICATION_TYPE = U
NORAD_CAT_ID   = 23705
ELEMENT_SET_NO = 999
REV_AT_EPOCH   = 55948
BSTAR          = .1476332E-3
MEAN_MOTION_DOT = .241E-5
MEAN_MOTION_DDOT = 0

CCSDS_OMM_VERS = 2.0
CREATION_DATE  = 
ORIGINATOR     = 

OBJECT_NAME    = SL-16 R/B
OBJECT_ID      = 1996-051B
CENTER_NAME    = EARTH
REF_FRAME      = TEME
TIME_SYSTEM    = UTC
MEAN_ELEMENT_THEORY = SGP/SGP4

EPOCH          = 2026-01-09T12:49:12.070272
MEAN_MOTION    = 14.12400217
ECCENTRICITY   = .00191976
INCLINATION    = 70.7598
RA_OF_ASC_NODE = 300.4514
ARG_OF_PERICENTER = 227.2157
MEAN_ANOMALY   = 132.7348

EPHEMERIS_TYPE = 0
CLASSIFICATION_TYPE = U
NORAD_CAT_ID   = 24298
ELEMENT_SET_NO = 999
REV_AT_EPOCH   = 51329
BSTAR          = .40726292E-4
MEAN_MOTION_DOT = .26E-6
MEAN_MOTION_DDOT = 0

CCSDS_OMM_VERS = 2.0
CREATION_DATE  = 
ORIGINATOR     = 

OBJECT_NAME    = ORBVIEW 2 (SEASTAR)
OBJECT_ID      = 1997-037A
CENTER_NAME    = EARTH
REF_FRAME      = TEME
TIME_SYSTEM    = UTC
MEAN_ELEMENT_THEORY = SGP/SGP4

EPOCH          = 2026-01-09T10:46:24.025152
MEAN_MOTION    = 14.35442277
ECCENTRICITY   = .00015664
INCLINATION    = 98.8475
RA_OF_ASC_NODE = 172.2245
ARG_OF_PERICENTER = 213.2237
MEAN_ANOMALY   = 146.8850

EPHEMERIS_TYPE = 0
CLASSIFICATION_TYPE = U
NORAD_CAT_ID   = 24883
ELEMENT_SET_NO = 999
REV_AT_EPOCH   = 49997
BSTAR          = .14018951E-3
MEAN_MOTION_DOT = .356E-5
MEAN_MOTION_DDOT = 0

