SL-16 R/B               
1 22566U 93016B   26009.34019910 -.00000212  00000+0 -84546-4 0  9991
2 22566  71.0089 339.8333 0008386  42.9500 317.2277 14.15295498693774
COSMOS 2242             
1 22626U 93024A   26009.59120986  .00002459  00000+0  21495-3 0  9996
2 22626  82.5208 323.2226 0017412 139.0171 221.2364 14.96253499771559
SL-16 R/B               
1 22803U 93059B   26009.68254799  .00000038  00000+0  42517-4 0  9991
2 22803  70.9903 135.5632 0019244 296.5719  63.3432 14.17218869671179
ARIANE 40 R/B           
1 22830U 93061H   26009.69111506  .00000273  00000+0  11590-3 0  9990
2 22830  98.5033  79.7072 0011823  98.9417 261.3106 14.32823323685650
COSMOS 2278             
1 23087U 94023A   26009.54301116  .00000384  00000+0  22508-3 0  9990
2 23087  71.0550 298.8415 0007024 128.2451 231.9305 14.14360729636446
SL-16 R/B               
1 23088U 94023B   26009.68702515  .00000335  00000+0  19783-3 0  9991
2 23088  70.9984 194.7961 0002921 347.6264  12.4786 14.15002698637744
SL-16 R/B               
1 23343U 94074B   26009.68845543  .00000514  00000+0  75672-4 0  9999
2 23343  97.7176  42.8784 0007831  60.2286  56.3483 14.79328389678521
SL-16 R/B               
1 23405U 94077B   26009.69165853  .00000241  00000+0  14763-3 0  9991
2 23405  70.9829 116.6114 0004849 261.4068  98.6505 14.15551799607882
ARIANE 40+ R/B          
1 23561U 95021B   26009.68525544  .00000317  00000+0  11508-3 0  9998
2 23561  98.4612  81.9323 0005984 326.1826 147.7197 14.39721225610750
SL-16 R/B               
1 23705U 95058B   26009.55439762  .00000241  00000+0  14763-3 0  9992
2 23705  71.0230 304.4076 0013912 218.0256 141.9886 14.15488560559486
SL-16 R/B               
1 24298U 96051B   26009.53416748  .00000026  00000+0  40726-4 0  9991
2 24298  70.7598 300.4514 0019197 227.2157 132.7348 14.12400217513293
ORBVIEW 2 (SEASTAR)     
1 24883U 97037A   26009.44888918  .00000356  00000+0  14019-3 0  9999
2 24883  98.8475 172.2245 0001566 213.2237 146.8850 14.35442277499978
